{
  "norad_id": 51751,
  "name": "STARLINK-3506",
  "history": [
    {
      "epoch": "2026-03-28T20:33:00.888192",
      "apogee_km": 540.6495023486668,
      "perigee_km": 538.8051997126822,
      "latitude_deg": 50.64224683101567,
      "longitude_deg": 157.30098687997088,
      "semi_major_axis_km": 6917.864351030675,
      "eccentricity": 0.0001333,
      "inclination_deg": 53.2167,
      "raan_deg": 223.0885,
      "arg_perigee_deg": 87.4359,
      "mean_anomaly_deg": 272.6786,
      "mean_motion_rev_day": 15.08845247
    }
  ]
}