{"fetched_at":"2026-03-30T06:02:59Z","count":15439,"tles":[{"name":"STARLINK-3506","line1":"1 51751U 22016AP  26087.85626028  .00001553  00000+0  11566-3 0  9995","line2":"2 51751  53.2167 223.0885 0001333  87.4359 272.6786 15.08845247226595","category":"Starlink"}]}